[{"OBJECT_NAME":"STARLINK-3575","OBJECT_ID":"2022-022AC","EPOCH":"2026-03-09T03:15:49.470336","MEAN_MOTION":15.08849319,"ECCENTRICITY":0.00012665,"INCLINATION":53.2188,"RA_OF_ASC_NODE":11.6047,"ARG_OF_PERICENTER":102.3883,"MEAN_ANOMALY":257.7251,"EPHEMERIS_TYPE":0,"CLASSIFICATION_TYPE":"U","NORAD_CAT_ID":51878,"ELEMENT_SET_NO":999,"REV_AT_EPOCH":22303,"BSTAR":0.00016448209,"MEAN_MOTION_DOT":2.331e-5,"MEAN_MOTION_DDOT":0},{"OBJECT_NAME":"JILIN-01 KUANFU 02B 5","OBJECT_ID":"2024-169E","EPOCH":"2026-03-09T22:46:28.718400","MEAN_MOTION":15.09244096,"ECCENTRICITY":0.00111722,"INCLINATION":97.556,"RA_OF_ASC_NODE":160.0628,"ARG_OF_PERICENTER":294.0678,"MEAN_ANOMALY":65.9381,"EPHEMERIS_TYPE":0,"CLASSIFICATION_TYPE":"U","NORAD_CAT_ID":61193,"ELEMENT_SET_NO":999,"REV_AT_EPOCH":8086,"BSTAR":0.00034816655,"MEAN_MOTION_DOT":5.486e-5,"MEAN_MOTION_DDOT":0}]
